{"type": "FeatureCollection", "_fuente": "IDECA / Datos Abiertos Bogotá — Localidad Bogotá D.C.", "_via": "transport.opendatasoft.com/dataset/poligonos-localidad-2", "_uso": "Insumo de la grilla H3. NO se usa como zona de cobertura: las localidades son divisiones administrativas de tamaños incomparables (Sumapaz 780 km², La Candelaria 2). Sirven para recortar la grilla a Bogotá y para repartir la demanda.", "_alias": "El catastro dice CANDELARIA y el NUSE LA CANDELARIA. Sin el alias, esa zona queda con demanda cero y el reparto la trata como desierta.", "features": [{"type": "Feature", "geometry": {"coordinates": [[[-74.0559679129999, 4.508321125851986], [-74.06144743699991, 4.511774494851873], [-74.06837699699992, 4.509954119851965], [-74.06894865599992, 4.511922218851854], [-74.0705007389999, 4.511625418851863], [-74.07191009299993, 4.518347207851683], [-74.06856341999992, 4.52802099285133], [-74.06972891499993, 4.529423613851295], [-74.0786996189999, 4.5270126238513875], [-74.0765134689999, 4.531902533851201], [-74.0783759059999, 4.532270569851245], [-74.0793383589999, 4.530040245851279], [-74.07968950499992, 4.532078898851212], [-74.08187531899995, 4.529604664851317], [-74.08017384699991, 4.526546041851399], [-74.08284936099994, 4.527766567851359], [-74.08782035899992, 4.520647733851607], [-74.08189181799992, 4.51781760085167], [-74.09107069499993, 4.519684043851648], [-74.08955516299994, 4.517095687851684], [-74.0944649299999, 4.516945998851736], [-74.0934248289999, 4.523375813851517], [-74.09577664299991, 4.537998434851041], [-74.0969985019999, 4.539907841850951], [-74.09830605399992, 4.539378920851013], [-74.09780717199993, 4.541399983850919], [-74.10045471399991, 4.545206936850775], [-74.10371321999992, 4.545517969850767], [-74.0981482649999, 4.534945818851149], [-74.1123824149999, 4.541682809850897], [-74.11256749799992, 4.540377107850973], [-74.11632893899991, 4.540643764850962], [-74.12114808099994, 4.545429556850812], [-74.12608585699991, 4.544822993850813], [-74.12485451599991, 4.544076121850858], [-74.12309045199993, 4.529202477851309], [-74.12321327599994, 4.527459054851374], [-74.1290023439999, 4.524426464851495], [-74.1256103039999, 4.520161510851629], [-74.1267373259999, 4.5062118038520875], [-74.12846497499993, 4.504542030852138], [-74.12684511499992, 4.501319848852242], [-74.12273896199991, 4.499698859852294], [-74.12134919499994, 4.492998249852513], [-74.12312109499993, 4.491505503852567], [-74.12042521199993, 4.490803616852541], [-74.1245282189999, 4.479113450852927], [-74.12841856299991, 4.475290973853082], [-74.13031252099995, 4.476370671853058], [-74.13826052999991, 4.465818779853378], [-74.13951190099993, 4.458007455853645], [-74.14424010899995, 4.448276536853968], [-74.14258376399994, 4.434020395854401], [-74.14385192199995, 4.432967540854425], [-74.1450441309999, 4.41514819685503], [-74.1433105779999, 4.408269243855242], [-74.14427158399991, 4.402579001855414], [-74.14129075699992, 4.391587225855802], [-74.14272377799995, 4.387767187855913], [-74.1512122389999, 4.387227566855958], [-74.15859132499992, 4.390162145855858], [-74.1626926859999, 4.389605547855874], [-74.16781127199994, 4.385188134856021], [-74.17727112999995, 4.38856100885589], [-74.18154627099995, 4.383661867856039], [-74.19508979799991, 4.387137356855964], [-74.21092453199992, 4.386906729855963], [-74.21078272599993, 4.382079953856105], [-74.2142128019999, 4.376370231856285], [-74.21219898099991, 4.374250894856345], [-74.21719836099993, 4.366989218856596], [-74.22116997299992, 4.364017399856712], [-74.21979825099993, 4.340237060857447], [-74.21797886899992, 4.335225341857629], [-74.21845357399991, 4.327287236857894], [-74.21432156399993, 4.303973172858679], [-74.21611995099994, 4.286849245859236], [-74.22113714699992, 4.282170223859384], [-74.21671666799995, 4.276782130859537], [-74.21619204399991, 4.27303361385964], [-74.21223634099994, 4.273458157859624], [-74.20584488599991, 4.269664099859766], [-74.20196093999994, 4.282826496859366], [-74.19496551999993, 4.2901196568590905], [-74.18822866599993, 4.282938230859336], [-74.1854465799999, 4.281933434859351], [-74.16049117499995, 4.283715771859301], [-74.13747838199993, 4.304246517858652], [-74.12439849899994, 4.306656295858587], [-74.11457218699991, 4.313580369858343], [-74.11433296399991, 4.318136014858177], [-74.1110459379999, 4.323814020858032], [-74.1069567859999, 4.325035021857969], [-74.10430151599991, 4.3328178028577184], [-74.10528164999994, 4.336769949857596], [-74.09888893599992, 4.344969724857308], [-74.09776119499992, 4.357374858856909], [-74.09444982899993, 4.364212374856706], [-74.09525825999992, 4.369911315856511], [-74.09868050299991, 4.374190795856351], [-74.09853666399994, 4.378165462856243], [-74.10505266799993, 4.378568354856243], [-74.11121868799995, 4.385941274855967], [-74.11377475499995, 4.386503220855954], [-74.1130764799999, 4.394320923855701], [-74.11466754399993, 4.397694829855626], [-74.11471646099994, 4.406102579855298], [-74.11315202599991, 4.409561467855198], [-74.11438926499994, 4.413158628855097], [-74.1130589089999, 4.416113575854978], [-74.11203771699991, 4.4353343268543854], [-74.10911379299995, 4.443214350854104], [-74.10579174999992, 4.446374986854019], [-74.10327917299992, 4.452336374853826], [-74.09321758499993, 4.456027442853674], [-74.09006663799994, 4.459119228853599], [-74.08458336199993, 4.456746408853671], [-74.08139867599994, 4.458159969853618], [-74.07961708399995, 4.461710328853534], [-74.0768847299999, 4.461796285853484], [-74.07704241399995, 4.465927237853375], [-74.07508238699995, 4.469382095853259], [-74.07533746699994, 4.484577726852749], [-74.06892525899991, 4.486874879852704], [-74.06509777299993, 4.4864906718527], [-74.05921030099995, 4.497112745852379], [-74.0559679129999, 4.508321125851986]]], "type": "Polygon"}, "properties": {"id": "5", "nombre": "USME", "centroide": {"lat": 4.39007637643949, "lng": -74.14283883392918}, "areaKm2": 215.07, "demandaRelativa": 0.04073, "llamadas": 375}}, {"type": "Feature", "geometry": {"coordinates": [[[-73.99445712799991, 4.614249525848519], [-74.0036704599999, 4.616518167848492], [-74.0078216149999, 4.615605202848525], [-74.0132022109999, 4.618639301848414], [-74.01786571299994, 4.614471187848512], [-74.0216494849999, 4.613798746848584], [-74.02809027899991, 4.617901704848427], [-74.03238474299991, 4.615522530848507], [-74.03153829999991, 4.617119261848461], [-74.03586698499993, 4.617544561848465], [-74.03973223699995, 4.613042698848583], [-74.04358056199993, 4.612567037848602], [-74.04749422299994, 4.616191395848509], [-74.0493762179999, 4.621624385848306], [-74.06516516799991, 4.625058273848213], [-74.06840721499992, 4.628803969848098], [-74.06989208999994, 4.621081908848314], [-74.07593364199994, 4.60933736784871], [-74.0890048949999, 4.591819546849269], [-74.08078624399991, 4.585822338849468], [-74.07402813699991, 4.576267391849807], [-74.07213339399993, 4.577739271849756], [-74.0699977939999, 4.576968623849768], [-74.0662124779999, 4.58359678684957], [-74.0489484929999, 4.573540844849889], [-74.03614077899994, 4.571160745849973], [-74.03369925099992, 4.572474985849931], [-74.03166724399995, 4.570644926849948], [-74.0324871219999, 4.567457773850051], [-74.02932285199995, 4.56204048585024], [-74.02900208999995, 4.558300133850396], [-74.02400151799992, 4.555751885850439], [-74.01810400799991, 4.560332251850317], [-74.00684546899993, 4.559310772850321], [-74.00683914799993, 4.565489237850123], [-74.00444555599995, 4.573781100849866], [-74.00609176499995, 4.578617335849734], [-74.00373825699995, 4.587116542849457], [-74.00159682299994, 4.589219314849389], [-74.00281970099991, 4.592169824849242], [-73.99921433599991, 4.592639527849249], [-73.9937398639999, 4.60052403484902], [-73.99661395599992, 4.60626344884878], [-73.99448511399993, 4.609616890848718], [-73.99445712799991, 4.614249525848519]], [[-74.0662087259999, 4.603171741848929], [-74.06231439899994, 4.603264547848924], [-74.05926130599994, 4.601382840848989], [-74.0650447889999, 4.599056392849045], [-74.0647117279999, 4.597414684849075], [-74.06636874599991, 4.597285100849103], [-74.06829015299991, 4.593576144849198], [-74.06832146399995, 4.589936038849338], [-74.0705791179999, 4.591456559849265], [-74.07278295799995, 4.58898873984935], [-74.0806290939999, 4.5916898278493], [-74.08144463499991, 4.59458825884921], [-74.0766983449999, 4.602111297848945], [-74.07106740699993, 4.600609332849005], [-74.0662087259999, 4.603171741848929]]], "type": "Polygon"}, "properties": {"id": "3", "nombre": "SANTA FE", "centroide": {"lat": 4.594010400416607, "lng": -74.03632428930787}, "areaKm2": 45.17, "demandaRelativa": 0.03465, "llamadas": 319}}, {"type": "Feature", "geometry": {"coordinates": [[[-74.18566586799994, 4.647046419847452], [-74.1837095379999, 4.652734778847299], [-74.1867917379999, 4.651466310847362], [-74.1935541119999, 4.655149354847199], [-74.1968950129999, 4.650457858847387], [-74.20292463899995, 4.646494560847486], [-74.20088627599995, 4.643836737847579], [-74.2068090329999, 4.64657924684752], [-74.20548584199992, 4.642272224847626], [-74.20701786099994, 4.640646543847669], [-74.21349314799994, 4.64041117684772], [-74.21556228899993, 4.6443353868475725], [-74.22129490799995, 4.644058791847578], [-74.2200178499999, 4.641682712847667], [-74.21576388999995, 4.64002454284768], [-74.21469592099993, 4.637268866847777], [-74.21750944999991, 4.635073564847888], [-74.21629377799991, 4.62970559084804], [-74.22242992899993, 4.629117000848052], [-74.2235814249999, 4.625471543848165], [-74.22066752099994, 4.623065703848249], [-74.22239699399995, 4.621135612848351], [-74.22081154499995, 4.619969402848379], [-74.22174023399992, 4.6189216398483826], [-74.21841163999994, 4.617852403848439], [-74.20426658299994, 4.599441432849003], [-74.20406272799994, 4.600768260848962], [-74.18394423599995, 4.596388700849142], [-74.16562752899995, 4.595657132849175], [-74.15216009999995, 4.599758614848994], [-74.15697875099994, 4.604082934848878], [-74.16314497299993, 4.606342532848825], [-74.16859405199995, 4.604245138848865], [-74.17008049399993, 4.6005613088489845], [-74.17400869499994, 4.600169964849017], [-74.17288927599992, 4.603154717848883], [-74.17554028799992, 4.603424127848919], [-74.17595284799995, 4.601244402848971], [-74.1777513479999, 4.601072453848986], [-74.17611253899992, 4.603623403848904], [-74.17658272099993, 4.605332342848815], [-74.17865515699992, 4.6054569168488495], [-74.17729227799992, 4.609619428848709], [-74.18190361099994, 4.614261238848567], [-74.17949848099994, 4.616428191848467], [-74.1820258759999, 4.61465543984856], [-74.18275221999994, 4.617124384848455], [-74.18503864599995, 4.615674935848497], [-74.18523458399994, 4.618855053848382], [-74.18010445499993, 4.61848577684839], [-74.17656066699993, 4.624020031848253], [-74.18566586799994, 4.647046419847452]]], "type": "Polygon"}, "properties": {"id": "7", "nombre": "BOSA", "centroide": {"lat": 4.621637662333684, "lng": -74.19453424833362}, "areaKm2": 23.93, "demandaRelativa": 0.07756, "llamadas": 714}}, {"type": "Feature", "geometry": {"coordinates": [[[-74.10341575899992, 4.65350728484725], [-74.12465090299992, 4.684803914846274], [-74.11840027399995, 4.688651399846144], [-74.12037818199991, 4.692221160846021], [-74.15477805099994, 4.717644816845183], [-74.15608816199995, 4.708048662845484], [-74.16035157199991, 4.7081767218455], [-74.16215449999993, 4.70730041584552], [-74.1618720269999, 4.705865136845546], [-74.17699733499995, 4.702784050845636], [-74.17452951899992, 4.700605171845725], [-74.1692212239999, 4.7008580568457266], [-74.17237244099994, 4.694372172845965], [-74.16763814699993, 4.688018727846168], [-74.17368686499992, 4.682614701846337], [-74.17485492999992, 4.6765727858465205], [-74.17151123899993, 4.67433561684658], [-74.17100102299992, 4.677176729846474], [-74.1695069619999, 4.675356672846561], [-74.16588112099993, 4.678177869846471], [-74.16455102999993, 4.675673873846522], [-74.1602341489999, 4.678310105846479], [-74.16224822499993, 4.681010800846379], [-74.1600647269999, 4.682956115846316], [-74.15697763199995, 4.679311160846407], [-74.1575988159999, 4.677403559846499], [-74.1624176169999, 4.675288281846548], [-74.16411166899991, 4.671303303846672], [-74.1661068969999, 4.6732674538466], [-74.16984472699994, 4.67178427184669], [-74.16976447799993, 4.668942177846768], [-74.16068314799992, 4.667118621846849], [-74.1610568239999, 4.664726595846931], [-74.15707962499994, 4.661530150847021], [-74.15456481099994, 4.664266362846934], [-74.14480488099991, 4.661227501847041], [-74.14094493099992, 4.662840280846958], [-74.13707798299993, 4.658789535847118], [-74.13231675299994, 4.648894590847398], [-74.12917466999994, 4.648526977847429], [-74.1238123249999, 4.640868655847681], [-74.11829863999992, 4.637411584847779], [-74.10341575899992, 4.65350728484725]]], "type": "Polygon"}, "properties": {"id": "9", "nombre": "FONTIBON", "centroide": {"lat": 4.678268530188671, "lng": -74.14029075408374}, "areaKm2": 33.28, "demandaRelativa": 0.05496, "llamadas": 506}}, {"type": "Feature", "geometry": {"coordinates": [[[-74.0572470319999, 4.6868362958462], [-74.07115508499993, 4.689355413846127], [-74.08517844999994, 4.678943194846421], [-74.09371541699994, 4.666065226846842], [-74.08482892699993, 4.654172239847275], [-74.06463473999992, 4.649647361847381], [-74.0572470319999, 4.6868362958462]]], "type": "Polygon"}, "properties": {"id": "12", "nombre": "BARRIOS UNIDOS", "centroide": {"lat": 4.669561434590243, "lng": -74.07384904298515}, "areaKm2": 11.9, "demandaRelativa": 0.03009, "llamadas": 277}}, {"type": "Feature", "geometry": {"coordinates": [[[-74.02900208999995, 4.558300133850396], [-74.02932285199995, 4.56204048585024], [-74.0324871219999, 4.567457773850051], [-74.03166724399995, 4.570644926849948], [-74.03369925099992, 4.572474985849931], [-74.03614077899994, 4.571160745849973], [-74.0489484929999, 4.573540844849889], [-74.0662124779999, 4.58359678684957], [-74.0699977939999, 4.576968623849768], [-74.07213339399993, 4.577739271849756], [-74.07402813699991, 4.576267391849807], [-74.0849308679999, 4.589319822849332], [-74.09458245899992, 4.57579699484981], [-74.10627167599995, 4.563896817850167], [-74.10176154299995, 4.555905400850457], [-74.10317934699992, 4.546926962850762], [-74.09975033699993, 4.544528639850819], [-74.09780717199993, 4.541399983850919], [-74.09830605399992, 4.539378920851013], [-74.0969985019999, 4.539907841850951], [-74.09577664299991, 4.537998434851041], [-74.0934248289999, 4.523375813851517], [-74.09491345499993, 4.517272345851722], [-74.08955516299994, 4.517095687851684], [-74.09107069499993, 4.519684043851648], [-74.08189181799992, 4.51781760085167], [-74.08782035899992, 4.520647733851607], [-74.08284936099994, 4.527766567851359], [-74.08017384699991, 4.526546041851399], [-74.08172543699993, 4.530232328851274], [-74.07968950499992, 4.532078898851212], [-74.07929051499991, 4.530059052851283], [-74.07773913299991, 4.532398165851211], [-74.07651524399995, 4.531847442851226], [-74.07890824299994, 4.527806931851385], [-74.0786996189999, 4.5270126238513875], [-74.07383654099993, 4.529274952851331], [-74.06856875999995, 4.528594620851352], [-74.07192909499992, 4.515967403851774], [-74.06847783199993, 4.509978414851969], [-74.06144743699991, 4.511774494851873], [-74.0559679129999, 4.508321125851986], [-74.05067092299993, 4.511417279851875], [-74.04249282599994, 4.510554145851919], [-74.03874648399994, 4.527343896851404], [-74.0356409609999, 4.535582170851086], [-74.03188804199993, 4.5394296798509846], [-74.03162791799991, 4.544219989850807], [-74.02943159799992, 4.547525022850701], [-74.02900208999995, 4.558300133850396]]], "type": "Polygon"}, "properties": {"id": "4", "nombre": "SAN CRISTOBAL", "centroide": {"lat": 4.5488652833540595, "lng": -74.06608944554166}, "areaKm2": 49.1, "demandaRelativa": 0.04671, "llamadas": 430}}, {"type": "Feature", "geometry": {"coordinates": [[[-74.01088781899995, 4.663578600846915], [-74.0043388869999, 4.669998147846715], [-74.00248346399991, 4.675337227846538], [-74.0042685809999, 4.679617848846423], [-74.01120498999995, 4.683865775846278], [-74.0121643249999, 4.691352874846037], [-74.01113912099993, 4.693546068845993], [-74.0143005779999, 4.697319676845831], [-74.00979683499992, 4.715233556845285], [-74.00704825299994, 4.7163783758452364], [-74.00840295199993, 4.720506636845109], [-74.00739907099995, 4.741944314844394], [-74.0095983519999, 4.749624602844165], [-74.00933278899993, 4.755248896843952], [-74.0184557899999, 4.762602679843697], [-74.01913455199991, 4.767929637843537], [-74.01547915799995, 4.775794469843276], [-74.01591215199994, 4.787842317842894], [-74.0133073209999, 4.79658995184264], [-74.00795332099995, 4.796920819842621], [-74.00020232399993, 4.802436122842422], [-73.99900683099992, 4.804924087842342], [-74.00454172499991, 4.810550008842149], [-74.00369638599994, 4.818562256841888], [-74.00556334399994, 4.821681182841799], [-74.02408946999992, 4.821926478841795], [-74.02981675699994, 4.823158706841746], [-74.03359778599992, 4.825841290841673], [-74.0572470319999, 4.6868362958462], [-74.0483613859999, 4.684975293846263], [-74.03144302899994, 4.6773300928465105], [-74.03050557799992, 4.675580495846551], [-74.02394378199995, 4.675839897846526], [-74.01897472599995, 4.673849657846593], [-74.01360566199992, 4.669502147846732], [-74.01451623699995, 4.666528482846873], [-74.01196958299994, 4.666114512846876], [-74.01088781899995, 4.663578600846915]]], "type": "Polygon"}, "properties": {"id": "1", "nombre": "USAQUEN", "centroide": {"lat": 4.742024878072677, "lng": -74.02775061735126}, "areaKm2": 65.32, "demandaRelativa": 0.04041, "llamadas": 372}}, {"type": "Feature", "geometry": {"coordinates": [[[-74.13776618399993, 4.594885110849165], [-74.1522637029999, 4.595686896849149], [-74.15418739699993, 4.59285634084925], [-74.15205461799991, 4.59304412084922], [-74.15138850199992, 4.591400205849286], [-74.15425967099992, 4.591257838849322], [-74.15695650499993, 4.588703540849399], [-74.15332112399994, 4.587904403849424], [-74.15306973899993, 4.58637913384947], [-74.15175791799993, 4.5874174708493936], [-74.15264790099991, 4.588696557849351], [-74.15049479699991, 4.587985611849404], [-74.1521550569999, 4.585407671849508], [-74.15059129799994, 4.584521163849527], [-74.15111426999994, 4.58257492284955], [-74.14842153299992, 4.583309789849533], [-74.1472158599999, 4.581947290849596], [-74.14931433599992, 4.581454088849639], [-74.14999024299993, 4.578326784849709], [-74.14705812599993, 4.5764942248498], [-74.14744732499992, 4.573743682849888], [-74.14650857899994, 4.57479528984982], [-74.14483950499994, 4.573010681849898], [-74.14261755599995, 4.57731676384973], [-74.14096114599994, 4.576074161849779], [-74.14324501899995, 4.572827116849918], [-74.14046045499992, 4.570469038849952], [-74.14170970799995, 4.568845485850003], [-74.14046049399991, 4.568326328850034], [-74.14044901199992, 4.564958416850155], [-74.13387728499993, 4.560712533850285], [-74.13398708499994, 4.557463265850402], [-74.13525832199991, 4.557141268850395], [-74.13319105199992, 4.556218550850456], [-74.13196963399992, 4.549550764850635], [-74.12709757499994, 4.549616140850644], [-74.12536366799992, 4.547505708850718], [-74.12630418099991, 4.546122843850781], [-74.12693981599995, 4.547216573850724], [-74.12997784299995, 4.546037805850773], [-74.1238684409999, 4.544489566850838], [-74.12114808099994, 4.545429556850812], [-74.12142428099992, 4.555305418850492], [-74.12663298199993, 4.566491780850117], [-74.1252557979999, 4.56956733484998], [-74.13087511499992, 4.585899685849467], [-74.12860974499995, 4.586644791849452], [-74.12829044699993, 4.592653187849227], [-74.13776618399993, 4.594885110849165]]], "type": "Polygon"}, "properties": {"id": "6", "nombre": "TUNJUELITO", "centroide": {"lat": 4.574971445660321, "lng": -74.13600864417211}, "areaKm2": 9.91, "demandaRelativa": 0.03052, "llamadas": 281}}, {"type": "Feature", "geometry": {"coordinates": [[[-74.03449735499993, 4.825469350841647], [-74.04078828899992, 4.826497285841639], [-74.04414572699994, 4.833000556841413], [-74.04553620299993, 4.830526326841532], [-74.04756258799995, 4.830570849841517], [-74.04996340899993, 4.835167397841361], [-74.04901240899994, 4.83064157184149], [-74.05329630499995, 4.833085199841448], [-74.0560185889999, 4.828853909841578], [-74.06020590799994, 4.8286252358415584], [-74.06065836099992, 4.827437715841624], [-74.06299560399992, 4.835599980841367], [-74.0644907649999, 4.830213600841538], [-74.06496092099991, 4.8348701168413974], [-74.06630708099993, 4.835099993841372], [-74.06708152899995, 4.827973596841567], [-74.07074250699992, 4.828398735841568], [-74.07171493099992, 4.834160017841417], [-74.07454143599995, 4.836670497841292], [-74.08655444399994, 4.832186168841459], [-74.08017778699991, 4.824981460841677], [-74.07895221199993, 4.821114001841811], [-74.08202274799993, 4.816377403841999], [-74.08342391899993, 4.822142243841795], [-74.08656506799991, 4.8210290018418], [-74.08712020599995, 4.816016783841973], [-74.08316726499993, 4.81433389784206], [-74.08468289199993, 4.812117577842128], [-74.08004312499992, 4.809988862842173], [-74.07994858399991, 4.808509808842205], [-74.0884762359999, 4.803308677842396], [-74.08710120499995, 4.8017005218424735], [-74.08899803899993, 4.8013868588424415], [-74.08859674699994, 4.798171237842564], [-74.09157127799995, 4.796685688842618], [-74.08717519099991, 4.796213434842646], [-74.09350208899991, 4.790890683842824], [-74.09606895099995, 4.799238807842503], [-74.10070958499995, 4.799114087842533], [-74.1027587559999, 4.795245369842681], [-74.1038613419999, 4.795007890842667], [-74.10317491099994, 4.797417396842583], [-74.10524844399993, 4.796873995842585], [-74.10804874699994, 4.788846903842882], [-74.11162288699995, 4.787205039842912], [-74.11238793099994, 4.789433746842871], [-74.11004094399993, 4.790339003842842], [-74.11294971199993, 4.79022944084282], [-74.11435404899993, 4.786889537842946], [-74.11225144199994, 4.784474620843014], [-74.11475149799992, 4.785638783842977], [-74.11436683699992, 4.782245449843077], [-74.11719827899992, 4.7806969688431415], [-74.11434506599994, 4.78006105184315], [-74.11718564599994, 4.77750343184323], [-74.1138836529999, 4.778118456843212], [-74.11660799099991, 4.772040775843387], [-74.11434463899991, 4.771982696843405], [-74.11469025399992, 4.770565785843474], [-74.11829963399992, 4.766779557843572], [-74.11570193499995, 4.76798924484356], [-74.11682643299991, 4.761786493843773], [-74.12123917699995, 4.759818520843802], [-74.12040967399992, 4.75419586384398], [-74.12523832099993, 4.753973163843993], [-74.12268049399995, 4.747264888844217], [-74.12428104799994, 4.750036358844156], [-74.12725405799995, 4.750637600844095], [-74.12557179899994, 4.7470636138442295], [-74.13006695799993, 4.74591848184429], [-74.13186230399992, 4.741092745844403], [-74.12880231299994, 4.737349773844527], [-74.12737994499992, 4.7373050288445615], [-74.12612961899993, 4.740017822844462], [-74.12069025999995, 4.739436805844479], [-74.11964971499992, 4.736823368844584], [-74.1146030459999, 4.734694597844651], [-74.11402633799992, 4.732050742844708], [-74.10868487399995, 4.727426958844869], [-74.10409179299995, 4.725823770844931], [-74.10398191899992, 4.723754509844967], [-74.10046709499994, 4.721395238845054], [-74.09984285599995, 4.7179983378451915], [-74.09668445699992, 4.717380015845175], [-74.09335076499991, 4.711359256845405], [-74.09087251699992, 4.710497395845399], [-74.0879885789999, 4.70565410684555], [-74.08836863099992, 4.698530354845798], [-74.08589032799995, 4.69733613884585], [-74.0846722799999, 4.694373481845933], [-74.08094843399994, 4.693143740846], [-74.07732779199995, 4.685359688846218], [-74.06908715899993, 4.689659399846067], [-74.0572470319999, 4.6868362958462], [-74.03449735499993, 4.825469350841647]]], "type": "Polygon"}, "properties": {"id": "11", "nombre": "SUBA", "centroide": {"lat": 4.763038959002258, "lng": -74.07596302760166}, "areaKm2": 100.56, "demandaRelativa": 0.10124, "llamadas": 932}}, {"type": "Feature", "geometry": {"coordinates": [[[-74.11829863999992, 4.637411584847779], [-74.1238123249999, 4.640868655847681], [-74.12917466999994, 4.648526977847429], [-74.13231675299994, 4.648894590847398], [-74.13707798299993, 4.658789535847118], [-74.14094493099992, 4.662840280846958], [-74.14480488099991, 4.661227501847041], [-74.15140097299991, 4.664249057846907], [-74.15456481099994, 4.664266362846934], [-74.15707962499994, 4.661530150847021], [-74.1622879119999, 4.6633664148469265], [-74.1640404819999, 4.658564629847097], [-74.16620746599995, 4.659875044847087], [-74.16765389999995, 4.656381715847165], [-74.1723363879999, 4.657143541847171], [-74.18007628299995, 4.652619763847296], [-74.18566586799994, 4.647046419847452], [-74.17656066699993, 4.624020031848253], [-74.18010445499993, 4.61848577684839], [-74.18523458399994, 4.618855053848382], [-74.18512028999993, 4.615749718848497], [-74.18275221999994, 4.617124384848455], [-74.1820258759999, 4.61465543984856], [-74.17949848099994, 4.616428191848467], [-74.18190361099994, 4.614261238848567], [-74.17734675899993, 4.609791247848705], [-74.17865515699992, 4.6054569168488495], [-74.17658272099993, 4.605332342848815], [-74.17611253899992, 4.603623403848904], [-74.17757230399991, 4.600955298848991], [-74.17595284799995, 4.601244402848971], [-74.17554028799992, 4.603424127848919], [-74.17288927599992, 4.603154717848883], [-74.17400869499994, 4.600169964849017], [-74.17008049399993, 4.6005613088489845], [-74.16859405199995, 4.604245138848865], [-74.1626850479999, 4.606284840848786], [-74.1522405419999, 4.600682902848986], [-74.14967022499991, 4.595831802849148], [-74.1522637029999, 4.595686896849149], [-74.13776618399993, 4.594885110849165], [-74.1292653989999, 4.608854530848733], [-74.11829863999992, 4.637411584847779]]], "type": "Polygon"}, "properties": {"id": "8", "nombre": "KENNEDY", "centroide": {"lat": 4.63034374761384, "lng": -74.15270521172532}, "areaKm2": 38.59, "demandaRelativa": 0.14968, "llamadas": 1378}}, {"type": "Feature", "geometry": {"coordinates": [[[-74.2058448919999, 4.269664096859796], [-74.20761442799994, 4.263597073859981], [-74.20501629899991, 4.252933269860339], [-74.20886545399992, 4.246589228860513], [-74.20629206699994, 4.241893709860671], [-74.21620748899994, 4.236970280860859], [-74.21875570299994, 4.232929986860999], [-74.21956053199995, 4.226488581861175], [-74.22449025299994, 4.222268874861309], [-74.2281138159999, 4.221995813861344], [-74.23146475599992, 4.21728242686146], [-74.23740077399992, 4.196457937862133], [-74.24253244099992, 4.197928069862096], [-74.24450100999991, 4.194918454862196], [-74.24467184199995, 4.189326186862393], [-74.2402180799999, 4.186464847862494], [-74.24124379599994, 4.180993955862665], [-74.24005249299995, 4.17272279286292], [-74.2429272569999, 4.162798273863262], [-74.24296828099995, 4.152606159863589], [-74.24562233599994, 4.140868540863998], [-74.24287183599995, 4.133664691864228], [-74.24642432099995, 4.114160436864847], [-74.24580961899994, 4.102874669865213], [-74.2519172609999, 4.102076718865258], [-74.25849470799994, 4.091722720865569], [-74.26394930299995, 4.091240481865577], [-74.2733537499999, 4.099125692865348], [-74.28015695399995, 4.102057952865219], [-74.29994316599993, 4.1056025908651534], [-74.31917500399993, 4.125717391864477], [-74.33004987499993, 4.1308832888642915], [-74.33084546599991, 4.119640990864643], [-74.33958042799992, 4.103262681865231], [-74.34302751899992, 4.10135491286528], [-74.34203191499995, 4.098945969865325], [-74.34504131699993, 4.094156059865481], [-74.34517471899994, 4.088369880865686], [-74.35092903799995, 4.075200265866136], [-74.35111944499994, 4.057683974866714], [-74.35527378699993, 4.051974469866875], [-74.3616398499999, 4.048152450867015], [-74.36659889799995, 4.036231855867412], [-74.36481737899993, 4.033132740867517], [-74.36289516499994, 4.009454169868285], [-74.36409844399992, 4.004930764868389], [-74.37042533199991, 3.995223926868706], [-74.37112026299991, 3.990729994868849], [-74.37451162799994, 3.986780667868992], [-74.36971796099994, 3.982597126869154], [-74.3635927119999, 3.980493405869199], [-74.3567488079999, 3.970331366869563], [-74.35562878999991, 3.96394248786973], [-74.35700364999991, 3.961217175869823], [-74.35673931399992, 3.946953825870324], [-74.35488304199993, 3.940989220870488], [-74.36075194299991, 3.917740209871288], [-74.35982196899994, 3.914039545871402], [-74.3635472199999, 3.907929510871594], [-74.36397423599993, 3.901815230871774], [-74.36801786199993, 3.895623566872005], [-74.37335371099994, 3.879772168872528], [-74.3753953829999, 3.876676206872597], [-74.38281715399995, 3.872900223872751], [-74.38357447099992, 3.869476919872841], [-74.38604051199991, 3.868663062872841], [-74.3869046989999, 3.856411379873255], [-74.3904267389999, 3.85099175287345], [-74.3911134569999, 3.842272000873746], [-74.39259229499993, 3.841093055873792], [-74.39616672499994, 3.824736239874286], [-74.41304673199994, 3.804698215874967], [-74.41428693899991, 3.801264515875062], [-74.41338625799995, 3.799733099875136], [-74.41717388799992, 3.7946362708752783], [-74.4205315449999, 3.7932324438753353], [-74.42377563899993, 3.786613798875547], [-74.43010169099995, 3.785613102875573], [-74.43274750299992, 3.779821094875749], [-74.43171335799991, 3.775864850875883], [-74.4332298679999, 3.772491158876027], [-74.4329921989999, 3.765236866876236], [-74.43754513599993, 3.76239896087636], [-74.43991688499995, 3.758596613876452], [-74.44351127999994, 3.758218497876485], [-74.44963721399995, 3.75045246087673], [-74.44628461499991, 3.738160379877134], [-74.43729321599994, 3.731030341877353], [-74.42334829399994, 3.742658502877005], [-74.41602546899992, 3.742289078876976], [-74.40806141799993, 3.740658040877058], [-74.40533141799995, 3.738206140877157], [-74.4007504519999, 3.738265368877152], [-74.3970814349999, 3.7455216328768923], [-74.39780043899992, 3.752798091876679], [-74.39365297099994, 3.754565367876575], [-74.38917494999993, 3.7513040438766883], [-74.38582555499994, 3.754432008876618], [-74.3864411749999, 3.761699645876364], [-74.39280867499991, 3.7707922858760723], [-74.3807804139999, 3.777206617875883], [-74.37659069799992, 3.7755653268758813], [-74.37517648999994, 3.778913406875795], [-74.37588434199995, 3.782379480875698], [-74.37309470499991, 3.787257763875521], [-74.36888979399993, 3.789509711875427], [-74.36465186799995, 3.78829185887551], [-74.35881754099995, 3.79798659087515], [-74.35392197699991, 3.800679861875061], [-74.3535586289999, 3.806072082874906], [-74.35521124099995, 3.8082850258748513], [-74.34967253299993, 3.809262563874791], [-74.34390357599995, 3.813855044874674], [-74.33979960699992, 3.811751248874714], [-74.33342039699994, 3.822314861874355], [-74.32982820399991, 3.8235374308743673], [-74.32828427399994, 3.828000501874195], [-74.31995284899995, 3.825428962874306], [-74.31831220399994, 3.815341824874618], [-74.30730206699991, 3.819101410874497], [-74.29896479099995, 3.81860426987453], [-74.29668580499992, 3.82036866787445], [-74.29501097299993, 3.830565804874094], [-74.29970946199995, 3.839107800873835], [-74.30812142299993, 3.841684915873758], [-74.3050569209999, 3.851243526873435], [-74.3092252159999, 3.859662164873183], [-74.31330318499994, 3.863983268873025], [-74.31462206399993, 3.8695591718728073], [-74.31359881399993, 3.874141985872661], [-74.31628216299993, 3.880320731872505], [-74.30967041199995, 3.88850171287219], [-74.30675591499994, 3.885108807872304], [-74.29786958799991, 3.881080637872464], [-74.29621538799995, 3.884543126872366], [-74.28656392799991, 3.89380780387204], [-74.27607208599994, 3.910552946871474], [-74.27332421599993, 3.925296406871025], [-74.2648425669999, 3.929441881870863], [-74.25647772299993, 3.928669077870882], [-74.2577020089999, 3.9426668308704373], [-74.25300858399993, 3.945476134870383], [-74.25394865299995, 3.947006507870311], [-74.26005688499993, 3.94866236487026], [-74.25117827499992, 3.949718129870218], [-74.24420620099994, 3.955410908870046], [-74.23767790999995, 3.973233742869477], [-74.23320095199995, 3.978201070869279], [-74.22946704999993, 3.993774841868762], [-74.21780103799995, 4.007519406868338], [-74.2175269629999, 4.010278068868212], [-74.21380331699993, 4.012963530868168], [-74.20973681099991, 4.011495206868188], [-74.20479854699994, 4.014208336868117], [-74.20115599699994, 4.013508881868121], [-74.19484906699995, 4.015784781868077], [-74.18288551699993, 4.008260357868326], [-74.1755238099999, 4.015975212868036], [-74.16922101199992, 4.015327980868051], [-74.15889757999992, 4.017718266868008], [-74.15405260799992, 4.013654726868137], [-74.1526479, 4.006545735868374], [-74.15026307999995, 4.004775111868415], [-74.14681055599993, 4.018312751867955], [-74.14312729699992, 4.020651325867899], [-74.13791144899994, 4.027407565867694], [-74.13744916199994, 4.030930862867538], [-74.13279992999992, 4.035305307867448], [-74.12472985799991, 4.057093705866691], [-74.12605115299993, 4.069225480866296], [-74.13258988199993, 4.079295194865963], [-74.12973197899993, 4.091839871865605], [-74.12708971599994, 4.09478559686547], [-74.11954504399995, 4.097975796865372], [-74.11821710399994, 4.100307971865287], [-74.1081280649999, 4.102518299865204], [-74.10083077399992, 4.106443366865086], [-74.0960289599999, 4.116891735864764], [-74.08967382299994, 4.12256535486457], [-74.0994203109999, 4.123551310864561], [-74.10559134599993, 4.129831921864322], [-74.11783095699991, 4.136319508864149], [-74.11440286099992, 4.142711508863944], [-74.11481517399994, 4.156623263863471], [-74.11243252299994, 4.161487810863322], [-74.11271122099993, 4.164249174863213], [-74.10918172899994, 4.169519665863017], [-74.11052961199994, 4.181313779862628], [-74.11569641999995, 4.182566694862598], [-74.12147063399993, 4.180513364862698], [-74.12354596499995, 4.182276027862606], [-74.12578440199991, 4.187081773862494], [-74.12446772599992, 4.195392808862187], [-74.13103219899995, 4.197744326862121], [-74.13349809199991, 4.204683629861918], [-74.13587549599993, 4.205344576861869], [-74.1364381649999, 4.210838606861712], [-74.13894927299992, 4.214823062861539], [-74.13608860999994, 4.22866019186111], [-74.14268438899995, 4.233725292860958], [-74.14550476199992, 4.245008478860603], [-74.15095895199994, 4.250272508860411], [-74.15263345499994, 4.254702293860279], [-74.1437784439999, 4.269402715859776], [-74.14179650099993, 4.278728659859482], [-74.13387928399993, 4.288170345859176], [-74.12733075799991, 4.304396643858641], [-74.12439849899994, 4.306656295858587], [-74.13747838199993, 4.304246517858652], [-74.15795763499995, 4.285348889859277], [-74.16269647699994, 4.283142380859331], [-74.1854465799999, 4.281933434859351], [-74.18822866599993, 4.282938230859336], [-74.19496551999993, 4.2901196568590905], [-74.20196093999994, 4.282826496859366], [-74.2058448919999, 4.269664096859796]]], "type": "Polygon"}, "properties": {"id": "20", "nombre": "SUMAPAZ", "centroide": {"lat": 4.036603253601165, "lng": -74.2570057450341}, "areaKm2": 780.97, "demandaRelativa": null, "llamadas": null}}, {"type": "Feature", "geometry": {"coordinates": [[[-74.1307544629999, 4.593353346849224], [-74.12447142399992, 4.589959366849334], [-74.11686321099995, 4.58844715484936], [-74.10888231099995, 4.589228359849345], [-74.10266081399993, 4.581372498849605], [-74.09458245899992, 4.57579699484981], [-74.0849308679999, 4.589319822849332], [-74.0907160509999, 4.592532263849244], [-74.10320447299995, 4.5946612558491715], [-74.10707300599995, 4.598243988849085], [-74.1209023959999, 4.593784474849212], [-74.1307544629999, 4.593353346849224]]], "type": "Polygon"}, "properties": {"id": "15", "nombre": "ANTONIO NARINO", "centroide": {"lat": 4.588755557346393, "lng": -74.1032233606168}, "areaKm2": 4.88, "demandaRelativa": 0.01662, "llamadas": 153}}, {"type": "Feature", "geometry": {"coordinates": [[[-74.0662087259999, 4.603171741848929], [-74.07106740699993, 4.600609332849005], [-74.0766983449999, 4.602111297848945], [-74.08144463499991, 4.59458825884921], [-74.0806290939999, 4.5916898278493], [-74.07278295799995, 4.58898873984935], [-74.0705791179999, 4.591456559849265], [-74.06832146399995, 4.589936038849338], [-74.06829015299991, 4.593576144849198], [-74.06636874599991, 4.597285100849103], [-74.0647117279999, 4.597414684849075], [-74.0650447889999, 4.599056392849045], [-74.05926130599994, 4.601382840848989], [-74.06231439899994, 4.603264547848924], [-74.0662087259999, 4.603171741848929]]], "type": "Polygon"}, "properties": {"id": "17", "nombre": "CANDELARIA", "centroide": {"lat": 4.596597717217077, "lng": -74.07215229446828}, "areaKm2": 2.06, "demandaRelativa": 0.00836, "llamadas": 77}}, {"type": "Feature", "geometry": {"coordinates": [[[-74.11829863999992, 4.637411584847779], [-74.1292653989999, 4.608854530848733], [-74.13776618399993, 4.594885110849165], [-74.1221429069999, 4.5935622458492436], [-74.10707300599995, 4.598243988849085], [-74.09912023899994, 4.605019922848825], [-74.08319894699991, 4.624698288848236], [-74.0914515039999, 4.62571719984816], [-74.1104452159999, 4.6451372078475295], [-74.11829863999992, 4.637411584847779]]], "type": "Polygon"}, "properties": {"id": "16", "nombre": "PUENTE ARANDA", "centroide": {"lat": 4.616337217764022, "lng": -74.11131022957359}, "areaKm2": 17.31, "demandaRelativa": 0.05898, "llamadas": 543}}, {"type": "Feature", "geometry": {"coordinates": [[[-74.12803073399994, 4.592539092849272], [-74.12860974499995, 4.586644791849452], [-74.13087511499992, 4.585899685849467], [-74.1252557979999, 4.56956733484998], [-74.12663298199993, 4.566491780850117], [-74.1215727309999, 4.556171377850417], [-74.12114808099994, 4.545429556850812], [-74.11632893899991, 4.540643764850962], [-74.11256749799992, 4.540377107850973], [-74.1123824149999, 4.541682809850897], [-74.0981482649999, 4.534945818851149], [-74.10371321999992, 4.545517969850767], [-74.10229740799991, 4.545970306850765], [-74.10176154299995, 4.555905400850457], [-74.10627167599995, 4.563896817850167], [-74.09458245899992, 4.57579699484981], [-74.10266081399993, 4.581372498849605], [-74.10888231099995, 4.589228359849345], [-74.11686321099995, 4.58844715484936], [-74.12447142399992, 4.589959366849334], [-74.12803073399994, 4.592539092849272]]], "type": "Polygon"}, "properties": {"id": "18", "nombre": "RAFAEL URIBE URIBE", "centroide": {"lat": 4.566505010342922, "lng": -74.1134174886749}, "areaKm2": 13.83, "demandaRelativa": 0.05225, "llamadas": 481}}, {"type": "Feature", "geometry": {"coordinates": [[[-74.09371541699994, 4.666065226846842], [-74.1104452159999, 4.6451372078475295], [-74.0914515039999, 4.62571719984816], [-74.07882820899994, 4.623891493848243], [-74.07282911699991, 4.615417331848492], [-74.0697117119999, 4.621638520848319], [-74.06463473999992, 4.649647361847381], [-74.0836132089999, 4.653346280847249], [-74.09371541699994, 4.666065226846842]]], "type": "Polygon"}, "properties": {"id": "13", "nombre": "TEUSAQUILLO", "centroide": {"lat": 4.641269023925475, "lng": -74.08581886159642}, "areaKm2": 14.19, "demandaRelativa": 0.03118, "llamadas": 287}}, {"type": "Feature", "geometry": {"coordinates": [[[-74.15546958599992, 4.717982195845199], [-74.12037818199991, 4.692221160846021], [-74.11840027399995, 4.688651399846144], [-74.12465090299992, 4.684803914846274], [-74.10341575899992, 4.65350728484725], [-74.08517844999994, 4.678943194846421], [-74.07732779199995, 4.685359688846218], [-74.08094843399994, 4.693143740846], [-74.0846722799999, 4.694373481845933], [-74.08589032799995, 4.69733613884585], [-74.08836863099992, 4.698530354845798], [-74.0879885789999, 4.70565410684555], [-74.09087251699992, 4.710497395845399], [-74.09335076499991, 4.711359256845405], [-74.09668445699992, 4.717380015845175], [-74.09984285599995, 4.7179983378451915], [-74.10046709499994, 4.721395238845054], [-74.10398191899992, 4.723754509844967], [-74.10409179299995, 4.725823770844931], [-74.10868487399995, 4.727426958844869], [-74.11402633799992, 4.732050742844708], [-74.1146030459999, 4.734694597844651], [-74.11964971499992, 4.736823368844584], [-74.12069025999995, 4.739436805844479], [-74.12716412299994, 4.739305583844489], [-74.12665784, 4.736677973844586], [-74.12835206099993, 4.735275296844586], [-74.12603101199994, 4.729661626844766], [-74.12860767299992, 4.726743429844877], [-74.13058255499993, 4.730867106844738], [-74.13557164399992, 4.728293270844811], [-74.13739428399992, 4.730725913844751], [-74.1485720039999, 4.725889173844936], [-74.1511033889999, 4.7227317078450355], [-74.15856074499993, 4.725168905844949], [-74.16034421599994, 4.720234076845078], [-74.15634849399993, 4.717175699845171], [-74.15546958599992, 4.717982195845199]]], "type": "Polygon"}, "properties": {"id": "10", "nombre": "ENGATIVA", "centroide": {"lat": 4.701028978459081, "lng": -74.11320818503745}, "areaKm2": 35.88, "demandaRelativa": 0.10026, "llamadas": 923}}, {"type": "Feature", "geometry": {"coordinates": [[[-74.01088781899995, 4.663578600846915], [-74.01196958299994, 4.666114512846876], [-74.01451623699995, 4.666528482846873], [-74.01360566199992, 4.669502147846732], [-74.01897472599995, 4.673849657846593], [-74.02394378199995, 4.675839897846526], [-74.03050557799992, 4.675580495846551], [-74.03144302899994, 4.6773300928465105], [-74.0483613859999, 4.684975293846263], [-74.0572470319999, 4.6868362958462], [-74.06840721499992, 4.628803969848098], [-74.06516516799991, 4.625058273848213], [-74.0493762179999, 4.621624385848306], [-74.04749422299994, 4.616191395848509], [-74.04358056199993, 4.612567037848602], [-74.03973223699995, 4.613042698848583], [-74.03586698499993, 4.617544561848465], [-74.03153829999991, 4.617119261848461], [-74.03238474299991, 4.615522530848507], [-74.02809027899991, 4.617901704848427], [-74.0216494849999, 4.613798746848584], [-74.01786571299994, 4.614471187848512], [-74.0132022109999, 4.618639301848414], [-74.0078216149999, 4.615605202848525], [-74.0036704599999, 4.616518167848492], [-73.9944570909999, 4.614249511848554], [-73.99120851899994, 4.617909479848399], [-73.9919538719999, 4.621483475848283], [-73.98695980299993, 4.627493540848143], [-73.98698119499994, 4.630525639848039], [-74.00727329999995, 4.625532656848177], [-74.0098091399999, 4.626713952848168], [-74.01043513099995, 4.630426322848005], [-74.00933971899991, 4.638805236847726], [-74.02871845299995, 4.64302229484758], [-74.03149876899994, 4.6449660498475325], [-74.0279536939999, 4.6489242788474385], [-74.02897418999993, 4.653628147847252], [-74.02557824399992, 4.656563380847173], [-74.0247200359999, 4.662121277847009], [-74.0194965579999, 4.661448064847003], [-74.01424037299995, 4.663943409846922], [-74.01088781899995, 4.663578600846915]]], "type": "Polygon"}, "properties": {"id": "2", "nombre": "CHAPINERO", "centroide": {"lat": 4.645163839083557, "lng": -74.03703278813019}, "areaKm2": 38.16, "demandaRelativa": 0.02259, "llamadas": 208}}, {"type": "Feature", "geometry": {"coordinates": [[[-74.07282911699991, 4.615417331848492], [-74.07882820899994, 4.623891493848243], [-74.08319894699991, 4.624698288848236], [-74.09912023899994, 4.605019922848825], [-74.10707300599995, 4.598243988849085], [-74.10320447299995, 4.5946612558491715], [-74.09908454899994, 4.594919369849182], [-74.0890048949999, 4.591819546849269], [-74.07282911699991, 4.615417331848492]]], "type": "Polygon"}, "properties": {"id": "14", "nombre": "LOS MARTIRES", "centroide": {"lat": 4.607189317315124, "lng": -74.08831293674609}, "areaKm2": 6.51, "demandaRelativa": 0.03389, "llamadas": 312}}, {"type": "Feature", "geometry": {"coordinates": [[[-74.18135180099995, 4.588917862849369], [-74.17938945999992, 4.576976545849778], [-74.17784301799992, 4.577742578849743], [-74.17529571499995, 4.575390756849838], [-74.17559708499994, 4.571698944849961], [-74.17851733799995, 4.570167831849955], [-74.1763847499999, 4.560490144850306], [-74.17706345499994, 4.553866802850509], [-74.17376005599994, 4.551589224850565], [-74.1763797779999, 4.545790496850752], [-74.17322119399995, 4.541053447850933], [-74.17736746399993, 4.537388622851067], [-74.18395841899991, 4.535668610851102], [-74.18810950499994, 4.532805979851225], [-74.18324540399993, 4.527466389851393], [-74.18222518699991, 4.51296211485183], [-74.17617498399994, 4.512512524851886], [-74.1733937699999, 4.507847594851991], [-74.18152822299993, 4.504104431852144], [-74.17877608999993, 4.496511264852353], [-74.17803311799992, 4.486409741852737], [-74.18257687199991, 4.480007438852928], [-74.1832872029999, 4.465597537853375], [-74.18645003499995, 4.458450407853645], [-74.18636554699992, 4.452247592853795], [-74.19051496599991, 4.447214017853989], [-74.19090390699995, 4.442700932854151], [-74.19474569599993, 4.434774884854407], [-74.19423919199994, 4.426767984854671], [-74.19884414199993, 4.426413638854688], [-74.2034217129999, 4.419375450854892], [-74.20407873599993, 4.414444351855078], [-74.20818250499991, 4.40789285385527], [-74.20777776499995, 4.405263830855357], [-74.2130802399999, 4.395505266855695], [-74.21092453199992, 4.386906729855963], [-74.19508979799991, 4.387137356855964], [-74.18154627099995, 4.383661867856039], [-74.17665143599993, 4.388645169855904], [-74.16781127199994, 4.385188134856021], [-74.1626926859999, 4.389605547855874], [-74.15859132499992, 4.390162145855858], [-74.1512122389999, 4.387227566855958], [-74.14272377799995, 4.387767187855913], [-74.14112958399994, 4.392087741855774], [-74.14426916499991, 4.402563877855456], [-74.1433105779999, 4.408269243855242], [-74.1450441309999, 4.41514819685503], [-74.14385192199995, 4.432967540854425], [-74.14258376399994, 4.434020395854401], [-74.14424010899995, 4.448276536853968], [-74.13951190099993, 4.458007455853645], [-74.13826052999991, 4.465818779853378], [-74.13031252099995, 4.476370671853058], [-74.12841856299991, 4.475290973853082], [-74.1245282189999, 4.479113450852927], [-74.1204221619999, 4.490859176852561], [-74.12312109499993, 4.491505503852567], [-74.12134919499994, 4.492998249852513], [-74.12273896199991, 4.499698859852294], [-74.12684511499992, 4.501319848852242], [-74.12846810499991, 4.504572878852132], [-74.1267373259999, 4.5062118038520875], [-74.1256103039999, 4.520161510851629], [-74.1290023439999, 4.524426464851495], [-74.12321327599994, 4.527459054851374], [-74.12306578899995, 4.532337506851228], [-74.12490665599995, 4.5442155998508476], [-74.12998438299991, 4.546175373850784], [-74.12693981599995, 4.547216573850724], [-74.12630418099991, 4.546122843850781], [-74.12536366799992, 4.547505708850718], [-74.12709757499994, 4.549616140850644], [-74.13224393899992, 4.549917790850618], [-74.13319105199992, 4.556218550850456], [-74.13525832199991, 4.557141268850395], [-74.13398708499994, 4.557463265850402], [-74.13387728499993, 4.560712533850285], [-74.14044901199992, 4.564958416850155], [-74.14046049399991, 4.568326328850034], [-74.14170970799995, 4.568845485850003], [-74.14046045499992, 4.570469038849952], [-74.1431954759999, 4.572617231849922], [-74.14096114599994, 4.576074161849779], [-74.14261755599995, 4.57731676384973], [-74.14483950499994, 4.573010681849898], [-74.14650857899994, 4.57479528984982], [-74.14744732499992, 4.573743682849888], [-74.14705812599993, 4.5764942248498], [-74.14999024299993, 4.578326784849709], [-74.14931433599992, 4.581454088849639], [-74.1472158599999, 4.581947290849596], [-74.14842153299992, 4.583309789849533], [-74.15111426999994, 4.58257492284955], [-74.15059129799994, 4.584521163849527], [-74.1521550569999, 4.585407671849508], [-74.15049479699991, 4.587985611849404], [-74.15264790099991, 4.588696557849351], [-74.15175791799993, 4.5874174708493936], [-74.15306973899993, 4.58637913384947], [-74.15332112399994, 4.587904403849424], [-74.15695650499993, 4.588703540849399], [-74.15425967099992, 4.591257838849322], [-74.15138850199992, 4.591400205849286], [-74.15412884299991, 4.5934622688492], [-74.15177507099992, 4.596398967849137], [-74.14974988999995, 4.596123537849157], [-74.15216009999995, 4.599758614848994], [-74.16331119799992, 4.595717124849163], [-74.18379853599993, 4.5964034408491266], [-74.18135180099995, 4.588917862849369]]], "type": "Polygon"}, "properties": {"id": "19", "nombre": "CIUDAD BOLIVAR", "centroide": {"lat": 4.482477512821125, "lng": -74.16190432279218}, "areaKm2": 130.0, "demandaRelativa": 0.0693, "llamadas": 638}}]}